HELIOS 2A               
1 28492U 04049A   24184.58203597  .00003220  00000+0  27962-3 0  9995
2 28492  98.3188 179.0586 0013767 144.4590 215.7550 14.97758096 46585
SPIRALE A               
1 33751U 09008C   24184.43902174  .00001405  00000+0  15144-2 0  9991
2 33751   2.0326 260.3529 5545131 234.9160  60.2736  4.59713348229012
SPIRALE B               
1 33752U 09008D   24184.25333678  .00007363  00000+0  14088-2 0  9994
2 33752   2.0475  62.0124 6783026 253.8495  26.2268  2.93541368146540
SAPPHIRE                
1 39088U 13009C   24184.48507935  .00000328  00000+0  13067-3 0  9993
2 39088  98.4108  10.8731 0010650 212.0909 147.9630 14.34715963594073
